NORAD_CAT_ID,OBJECT_NAME,OBJECT_TYPE,EPOCH,MEAN_MOTION,ECCENTRICITY,INCLINATION,RA_OF_ASC_NODE,ARG_OF_PERICENTER,MEAN_ANOMALY,BSTAR,MEAN_MOTION_DOT,MEAN_MOTION_DDOT,TLE_LINE0,TLE_LINE1,TLE_LINE2,SEMIMAJOR_AXIS,PERIOD,APOGEE,PERIGEE,DECAYED
56774.0,STARLINK-6190,PAYLOAD,2024-06-16 16:50:33,14.98331307,0.0003156,69.9987,155.3029,269.0781,91.0017,3.1642e-05,2.85e-06,0.0,0 STARLINK-6190,1 56774U 23078H   24168.70177694  .00000285  00000-0  31642-4 0  9996,2 56774  69.9987 155.3029 0003156 269.0781  91.0017 14.98331307 57674,6950.189,96.107,574.247,569.86,0.0
56774.0,STARLINK-6190,PAYLOAD,2024-06-17 16:52:34,14.98332739,0.000311,69.9988,152.7785,270.1154,89.9649,3.437e-05,3.17e-06,0.0,0 STARLINK-6190,1 56774U 23078H   24169.70317528  .00000317  00000-0  34370-4 0  9996,2 56774  69.9988 152.7785 0003110 270.1154  89.9649 14.98332739 57826,6950.184,96.107,574.211,569.888,0.0
56774.0,STARLINK-6190,PAYLOAD,2024-06-18 08:53:54,14.98336462,0.0003103,69.9989,151.0953,270.155,89.9253,6.3301e-05,6.62e-06,0.0,0 STARLINK-6190,1 56774U 23078H   24170.37077054  .00000662  00000-0  63301-4 0  9997,2 56774  69.9989 151.0953 0003103 270.1550  89.9253 14.98336462 58186,6950.173,96.107,574.195,569.881,0.0
56774.0,STARLINK-6190,PAYLOAD,2024-06-19 04:07:31,14.98328999,0.0003049,69.9991,149.0755,270.2896,89.7913,6.5123e-06,-1.5e-07,0.0,0 STARLINK-6190,1 56774U 23078H   24171.17189561 -.00000015  00000-0  65123-5 0  9991,2 56774  69.9991 149.0755 0003049 270.2896  89.7913 14.98328999 58300,6950.196,96.107,574.18,569.942,0.0
56774.0,STARLINK-6190,PAYLOAD,2024-06-19 08:55:55,14.98331152,0.0003022,69.9991,148.5706,270.2482,89.8331,3.5541e-05,3.31e-06,0.0,0 STARLINK-6190,1 56774U 23078H   24171.37217335  .00000331  00000-0  35541-4 0  9994,2 56774  69.9991 148.5706 0003022 270.2482  89.8331 14.98331152 58076,6950.189,96.107,574.155,569.954,0.0
56774.0,STARLINK-6190,PAYLOAD,2024-06-19 15:20:28,14.98329176,0.0003013,69.9992,147.8973,270.4564,89.625,8.8538e-06,1.3e-07,0.0,0 STARLINK-6190,1 56774U 23078H   24171.63921508  .00000013  00000-0  88538-5 0  9999,2 56774  69.9992 147.8973 0003013 270.4564  89.6250 14.98329176 58114,6950.195,96.107,574.155,569.966,0.0
56774.0,STARLINK-6190,PAYLOAD,2024-06-20 04:09:32,14.98330305,0.0002942,69.9994,146.5509,271.152,88.9302,-4.277e-05,-6.03e-06,0.0,0 STARLINK-6190,1 56774U 23078H   24172.17329574 -.00000603  00000-0 -42770-4 0  9998,2 56774  69.9994 146.5509 0002942 271.1520  88.9302 14.98330305 58450,6950.192,96.107,574.102,570.012,0.0
56774.0,STARLINK-6190,PAYLOAD,2024-06-20 08:57:56,14.98331026,0.000291,69.9995,146.0461,270.7371,89.3455,-2.0016e-05,-3.32e-06,0.0,0 STARLINK-6190,1 56774U 23078H   24172.37357456 -.00000332  00000-0 -20016-4 0  9998,2 56774  69.9995 146.0461 0002910 270.7371  89.3455 14.98331026 58227,6950.19,96.107,574.077,570.032,0.0
56774.0,STARLINK-6190,PAYLOAD,2024-06-21 04:11:33,14.98326363,0.0002908,69.9995,144.0263,267.8831,92.1995,-5.727e-06,-1.61e-06,0.0,0 STARLINK-6190,1 56774U 23078H   24173.17469767 -.00000161  00000-0 -57270-5 0  9999,2 56774  69.9995 144.0263 0002908 267.8831  92.1995 14.98326363 58601,6950.204,96.107,574.09,570.048,0.0
56774.0,STARLINK-6190,PAYLOAD,2024-06-21 08:59:57,14.98327753,0.0002888,69.9996,143.5214,267.0313,93.0516,1.0258e-05,2.9e-07,0.0,0 STARLINK-6190,1 56774U 23078H   24173.37497665  .00000029  00000-0  10258-4 0  9994,2 56774  69.9996 143.5214 0002888 267.0313  93.0516 14.98327753 58373,6950.2,96.107,574.072,570.058,0.0
56774.0,STARLINK-6190,PAYLOAD,2024-06-22 04:13:34,14.9832793,0.0002874,69.9997,141.5023,260.7641,99.3193,2.408e-05,1.94e-06,0.0,0 STARLINK-6190,1 56774U 23078H   24174.17609689  .00000194  00000-0  24080-4 0  9995,2 56774  69.9997 141.5023 0002874 260.7641  99.3193 14.98327930 58758,6950.199,96.107,574.062,570.067,0.0
56774.0,STARLINK-6190,PAYLOAD,2024-06-22 07:25:50,14.98328168,0.0002894,69.9997,141.1653,263.4168,96.6661,2.5525e-05,2.12e-06,0.0,0 STARLINK-6190,1 56774U 23078H   24174.30961700  .00000212  00000-0  25525-4 0  9991,2 56774  69.9997 141.1653 0002894 263.4168  96.6661 14.98328168 58517,6950.199,96.107,574.075,570.052,0.0
56774.0,STARLINK-6190,PAYLOAD,2024-06-23 04:15:35,14.98329298,0.0002953,69.9996,138.9771,264.0243,96.058,4.0144e-05,3.86e-06,0.0,0 STARLINK-6190,1 56774U 23078H   24175.17749658  .00000386  00000-0  40144-4 0  9999,2 56774  69.9996 138.9771 0002953 264.0243  96.0580 14.98329298 58900,6950.195,96.107,574.112,570.008,0.0
56774.0,STARLINK-6190,PAYLOAD,2024-06-23 07:27:51,14.98330536,0.000296,69.9996,138.6403,265.5776,94.5045,5.3343e-05,5.44e-06,0.0,0 STARLINK-6190,1 56774U 23078H   24175.31101553  .00000544  00000-0  53343-4 0  9992,2 56774  69.9996 138.6403 0002960 265.5776  94.5045 14.98330536 58663,6950.191,96.107,574.113,569.999,0.0
56774.0,STARLINK-6190,PAYLOAD,2024-06-23 21:53:04,14.98332059,0.0002981,69.9996,137.1252,267.0995,92.9823,5.0053e-05,5.04e-06,0.0,0 STARLINK-6190,1 56774U 23078H   24175.91185416  .00000504  00000-0  50053-4 0  9999,2 56774  69.9996 137.1252 0002981 267.0995  92.9823 14.98332059 58750,6950.187,96.107,574.123,569.98,0.0
56774.0,STARLINK-6190,PAYLOAD,2024-06-24 04:17:36,14.98333084,0.0002961,69.9995,136.4518,266.8007,93.2813,6.1208e-05,6.37e-06,0.0,0 STARLINK-6190,1 56774U 23078H   24176.17889287  .00000637  00000-0  61208-4 0  9996,2 56774  69.9995 136.4518 0002961 266.8007  93.2813 14.98333084 59051,6950.183,96.107,574.106,569.99,0.0
56774.0,STARLINK-6190,PAYLOAD,2024-06-24 07:29:52,14.98334769,0.0002942,69.9995,136.1152,266.6893,93.3929,7.8748e-05,8.47e-06,0.0,0 STARLINK-6190,1 56774U 23078H   24176.31241100  .00000847  00000-0  78748-4 0  9998,2 56774  69.9995 136.1152 0002942 266.6893  93.3929 14.98334769 58815,6950.178,96.107,574.088,569.998,0.0
56774.0,STARLINK-6190,PAYLOAD,2024-06-24 21:55:05,14.98330681,0.000297,69.9995,134.6032,252.3493,107.7342,-1.1896e-05,-2.35e-06,0.0,0 STARLINK-6190,1 56774U 23078H   24176.91325494 -.00000235  00000-0 -11896-4 0  9997,2 56774  69.9995 134.6032 0002970 252.3493 107.7342 14.98330681 58902,6950.191,96.107,574.12,569.992,0.0
56774.0,STARLINK-6190,PAYLOAD,2024-06-25 04:19:37,14.98334868,0.0003187,69.9996,133.9297,266.2948,93.7847,-2.3241e-05,-3.7e-06,0.0,0 STARLINK-6190,1 56774U 23078H   24177.18029269 -.00000370  00000-0 -23241-4 0  9995,2 56774  69.9996 133.9297 0003187 266.2948  93.7847 14.98334868 59207,6950.178,96.107,574.258,569.828,0.0
56774.0,STARLINK-6190,PAYLOAD,2024-06-25 07:31:53,14.9832863,0.0003218,69.9993,133.592,269.8044,90.2746,8.4447e-05,9.15e-06,0.0,0 STARLINK-6190,1 56774U 23078H   24177.31381393  .00000915  00000-0  84447-4 0  9997,2 56774  69.9993 133.5920 0003218 269.8044  90.2746 14.98328630 58966,6950.197,96.107,574.299,569.826,0.0
56774.0,STARLINK-6190,PAYLOAD,2024-06-25 21:57:05,14.98332548,0.0002877,69.9996,132.0761,259.8221,100.2614,5.4662e-06,-2.8e-07,0.0,0 STARLINK-6190,1 56774U 23078H   24177.91465204 -.00000028  00000-0  54662-5 0  9990,2 56774  69.9996 132.0761 0002877 259.8221 100.2614 14.98332548 59052,6950.185,96.107,574.05,570.05,0.0
56774.0,STARLINK-6190,PAYLOAD,2024-06-26 04:21:37,14.9833593,0.0002862,69.9996,131.4036,252.0221,108.0626,3.9602e-05,3.8e-06,0.0,0 STARLINK-6190,1 56774U 23078H   24178.18168813  .00000380  00000-0  39602-4 0  9992,2 56774  69.9996 131.4036 0002862 252.0221 108.0626 14.98335930 59359,6950.175,96.107,574.029,570.05,0.0
56774.0,STARLINK-6190,PAYLOAD,2024-06-26 05:57:45,14.98336387,0.0002771,69.9998,131.2348,256.7264,103.3586,5.0995e-05,5.16e-06,0.0,0 STARLINK-6190,1 56774U 23078H   24178.24844768  .00000516  00000-0  50995-4 0  9998,2 56774  69.9998 131.2348 0002771 256.7264 103.3586 14.98336387 59105,6950.173,96.107,573.964,570.112,0.0
56774.0,STARLINK-6190,PAYLOAD,2024-06-27 04:23:40,14.98301468,0.0002843,70.0003,128.8784,252.6148,107.47,0.00036498,4.261e-05,0.0,0 STARLINK-6190,1 56774U 23078H   24179.18310365  .00004261  00000-0  36498-3 0  9995,2 56774  70.0003 128.8784 0002843 252.6148 107.4700 14.98301468 59506,6950.281,96.109,574.122,570.17,0.0
56774.0,STARLINK-6190,PAYLOAD,2024-06-27 14:00:28,14.98326731,0.0002509,70.0007,127.8659,265.3784,94.7088,-3.4014e-06,-1.33e-06,0.0,0 STARLINK-6190,1 56774U 23078H   24179.58365822 -.00000133  00000-0 -34014-5 0  9997,2 56774  70.0007 127.8659 0002509 265.3784  94.7088 14.98326731 59569,6950.203,96.107,573.812,570.324,0.0
56774.0,STARLINK-6190,PAYLOAD,2024-06-27 22:01:08,14.98332916,0.0002919,69.9994,127.0254,270.4978,89.5847,-1.0699e-05,-2.21e-06,0.0,0 STARLINK-6190,1 56774U 23078H   24179.91745378 -.00000221  00000-0 -10699-4 0  9992,2 56774  69.9994 127.0254 0002919 270.4978  89.5847 14.98332916 59355,6950.184,96.107,574.078,570.02,0.0
56774.0,STARLINK-6190,PAYLOAD,2024-06-28 04:25:40,14.98335103,0.0003013,69.9994,126.353,269.9771,90.1043,3.8096e-06,-4.8e-07,0.0,0 STARLINK-6190,1 56774U 23078H   24180.18449152 -.00000048  00000-0  38096-5 0  9992,2 56774  69.9994 126.3530 0003013 269.9771  90.1043 14.98335103 59654,6950.177,96.107,574.136,569.948,0.0
56774.0,STARLINK-6190,PAYLOAD,2024-06-28 14:02:28,14.98334018,0.0003031,69.9994,125.3414,267.8935,92.1877,3.0851e-05,2.75e-06,0.0,0 STARLINK-6190,1 56774U 23078H   24180.58505045  .00000275  00000-0  30851-4 0  9991,2 56774  69.9994 125.3414 0003031 267.8935  92.1877 14.98334018 59452,6950.18,96.107,574.152,569.939,0.0
56774.0,STARLINK-6190,PAYLOAD,2024-06-28 22:03:08,14.98331457,0.000314,69.9993,124.5,269.5291,90.5508,5.62e-05,5.78e-06,0.0,0 STARLINK-6190,1 56774U 23078H   24180.91885166  .00000578  00000-0  56200-4 0  9995,2 56774  69.9993 124.5000 0003140 269.5291  90.5508 14.98331457 59501,6950.188,96.107,574.236,569.871,0.0
56774.0,STARLINK-6190,PAYLOAD,2024-06-29 04:27:40,14.98334296,0.000308,69.9995,123.8275,271.1775,88.9031,0.00017297,1.972e-05,0.0,0 STARLINK-6190,1 56774U 23078H   24181.18588650  .00001972  00000-0  17297-3 0  9994,2 56774  69.9995 123.8275 0003080 271.1775  88.9031 14.98334296 59807,6950.18,96.107,574.185,569.904,0.0
